
# C42 (GNSS)
1 44865U 19090B   26194.37201139 -.00000039  00000+0  00000+0 0  9995
2 44865  56.5830  61.9605 0014540 312.7537 226.2950  1.86231167 44701

# C60 (GNSS)
1 45344U 20017A   26195.78878414 -.00000149  00000+0  00000+0 0  9993
2 45344   2.9180  47.7166 0001967  61.1824 187.7312  1.00269052 23535

# C61 (GNSS)
1 45807U 20040A   26195.79476417 -.00000364  00000+0  00000+0 0  9990
2 45807   2.5130  67.5210 0002264 309.4050 312.2941  1.00276866 22342

# C62 (GNSS)
1 56564U 23066A   26195.80065753 -.00000289  00000+0  00000+0 0  9998
2 56564   0.4609 338.8268 0004887 187.3791 194.7490  1.00272567 11677

# C50 (GNSS)
1 58654U 23207A   26195.14722610 -.00000041  00000+0  00000+0 0  9992
2 58654  55.7766  61.3937 0002448   4.5208 355.5548  1.86229649 17349

# E30 (GNSS)
1 40890U 15045B   26195.44010403  .00000065  00000+0  00000+0 0  9994
2 40890  54.9389 220.8513 0002159 328.3003  31.7529  1.70473502 67502

# E07 (GNSS)
1 41859U 16069A   26192.96868882 -.00000030  00000+0  00000+0 0  9996
2 41859  55.5126 100.4004 0004522 339.9754  20.0172  1.70473524 59824

# E08 (GNSS)
1 41175U 15079B   26194.06902902 -.00000030  00000+0  00000+0 0  9992
2 41175  55.8391 100.5488 0004537  14.0255 346.0022  1.70473434 65633

# E09 (GNSS)
1 41174U 15079A   26195.02182816 -.00000029  00000+0  00000+0 0  9990
2 41174  55.8424 100.5256 0004793 355.0835   4.9328  1.70473559 65231

# E01 (GNSS)
1 41550U 16030B   26194.44991027  .00000075  00000+0  00000+0 0  9993
2 41550  55.0890 220.9702 0004705 245.6876 114.3369  1.70473836 63117

# E02 (GNSS)
1 41549U 16030A   26195.36582065  .00000066  00000+0  00000+0 0  9991
2 41549  55.0898 220.9468 0003383 318.5013  41.5401  1.70473656 63136

# E03 (GNSS)
1 41860U 16069B   26193.99526782 -.00000031  00000+0  00000+0 0  9993
2 41860  55.5113 100.3671 0004362  10.9612 349.0630  1.70473652 60098

# E04 (GNSS)
1 41861U 16069C   26194.36243565 -.00000031  00000+0  00000+0 0  9991
2 41861  55.5134 100.3648 0004126 318.6741  41.3115  1.70474037 59967

# E05 (GNSS)
1 41862U 16069D   26195.09530723 -.00000030  00000+0  00000+0 0  9997
2 41862  55.5122 100.3371 0003296 333.1197  26.8847  1.70473685 60108

# E21 (GNSS)
1 43055U 17079A   26192.06539411  .00000090  00000+0  00000+0 0  9997
2 43055  55.0682 220.8492 0003697 267.9007  92.1373  1.70474334 53396

# E25 (GNSS)
1 43056U 17079B   26195.28941631  .00000067  00000+0  00000+0 0  9990
2 43056  55.0681 220.7605 0004885 277.2528  82.7589  1.70474452 53466

# E27 (GNSS)
1 43057U 17079C   26194.92364590  .00000071  00000+0  00000+0 0  9999
2 43057  55.0663 220.7682 0005177 287.6925  72.3210  1.70474255 53448

# E31 (GNSS)
1 43058U 17079D   26195.14371946  .00000068  00000+0  00000+0 0  9994
2 43058  55.0664 220.7598 0005403 274.9614  85.0453  1.70474358 53479

# E36 (GNSS)
1 43566U 18060C   26194.31518514 -.00000093  00000+0  00000+0 0  9990
2 43566  57.1630 341.0808 0001810 299.7576  60.2111  1.70476015 49631

# E13 (GNSS)
1 43567U 18060D   26194.53619195 -.00000094  00000+0  00000+0 0  9993
2 43567  57.1625 341.0748 0002129 291.2422  68.7213  1.70475652 49621

# E15 (GNSS)
1 43564U 18060A   26195.04779836 -.00000096  00000+0  00000+0 0  9998
2 43564  57.1598 341.0559 0002663 285.3829  74.5732  1.70476069 49629

# E33 (GNSS)
1 43565U 18060B   26194.68091083 -.00000095  00000+0  00000+0 0  9998
2 43565  57.1635 341.0695 0002781 235.2693 124.6907  1.70475786 49667

# E34 (GNSS)
1 49809U 21116A   26193.80162081 -.00000091  00000+0  00000+0 0  9997
2 49809  57.1512 340.9841 0002430 195.8611 164.1379  1.70475864 28612

# E10 (GNSS)
1 49810U 21116B   26194.50046551 -.00000094  00000+0  00000+0 0  9993
2 49810  57.1519 340.9637 0001862 181.9105 359.6169  1.70475939 28651

# R01 (GNSS)
1 36111U 09070A   26195.30819457 -.00000010  00000+0  00000+0 0  9998
2 36111  65.0270  70.0476 0003644 340.5553 202.1732  2.13103651129001

# R02 (GNSS)
1 39155U 13019A   26195.59633438 -.00000008  00000+0  00000+0 0  9998
2 39155  65.4348  72.6854 0022679 231.1740 128.6989  2.13103196102867

# R03 (GNSS)
1 37867U 11064A   26194.44728024 -.00000011  00000+0  00000+0 0  9997
2 37867  65.2845  71.9855 0022141 236.0231 274.5611  2.13103772114328

# R04 (GNSS)
1 44850U 19088A   26192.43092179 -.00000019  00000+0  00000+0 0  9991
2 44850  65.5782  72.9223 0012329 255.3827 104.5453  2.13103002 51235

# R05 (GNSS)
1 43508U 18053A   26195.30191606 -.00000008  00000+0  00000+0 0  9993
2 43508  65.5923  73.0036 0006413 229.6749 130.3442  2.13102086 62855

# R06 (GNSS)
1 36112U 09070B   26194.19579927 -.00000012  00000+0  00000+0 0  9992
2 36112  65.0120  69.9289 0004075 121.6619  54.8410  2.13101172128982

# R07 (GNSS)
1 37868U 11064B   26195.15704826 -.00000009  00000+0  00000+0 0  9998
2 37868  65.2915  72.0412 0019136 236.8814 278.4747  2.13102942114335

# R08 (GNSS)
1 37869U 11064C   26195.24943597 -.00000009  00000+0  00000+0 0  9999
2 37869  65.2982  72.0599 0024831 251.2133 290.0274  2.13101779114342

# R09 (GNSS)
1 40315U 14075A   26195.04843601  .00000065  00000+0  00000+0 0  9998
2 40315  63.6185 189.4424 0022586 212.6579 147.2095  2.13101105 90428

# R10 (GNSS)
1 32395U 07065C   26195.33785786  .00000064  00000+0  00000+0 0  9998
2 32395  64.3286 191.0723 0017311 353.5012 185.8793  2.13099954144303

# R11 (GNSS)
1 46805U 20075A   26195.16188692  .00000067  00000+0  00000+0 0  9992
2 46805  64.6014 191.5752 0009464 239.9777 119.9394  2.13099921 44485

# R12 (GNSS)
1 44299U 19030A   26195.90315938  .00000058  00000+0  00000+0 0  9993
2 44299  64.3705 191.6832 0013535 275.0523 246.8587  2.13102157 55514

# R13 (GNSS)
1 32393U 07065A   26196.02182712  .00000057  00000+0  00000+0 0  9995
2 32393  64.3201 190.9768 0001273 327.5882 244.3125  2.13101166144366

# R14 (GNSS)
1 42939U 17055A   26195.33991172  .00000064  00000+0  00000+0 0  9991
2 42939  64.0806 190.9601 0010939 240.7377 119.1613  2.13101791 68552

# R15 (GNSS)
1 43687U 18086A   26192.11333993  .00000113  00000+0  00000+0 0  9996
2 43687  64.2969 191.7864 0012111 256.4030 103.4921  2.13101972 59794

# R16 (GNSS)
1 54377U 22161A   26195.92736262  .00000059  00000+0  00000+0 0  9990
2 54377  64.7438 191.7908 0012237 224.9723 134.9352  2.13101973 28227

# R17 (GNSS)
1 41330U 16008A   26195.50226399 -.00000061  00000+0  00000+0 0  9991
2 41330  65.0036 312.0692 0012287 201.0731 158.8877  2.13102507 81206

# R18 (GNSS)
1 39620U 14012A   26195.08591090 -.00000062  00000+0  00000+0 0  9990
2 39620  65.2804 313.0224 0010320 317.8524  42.0766  2.13103240 95812

# R19 (GNSS)
1 54031U 22130A   26195.61497903 -.00000064  00000+0  00000+0 0  9992
2 54031  64.2534 313.6016 0013079 180.9552 179.0524  2.13101638 29272

# R20 (GNSS)
1 32276U 07052B   26194.72487859 -.00000064  00000+0  00000+0 0  9995
2 32276  65.5765 315.1695 0007405 322.3764  28.6295  2.13103098145648

# R21 (GNSS)
1 40001U 14032A   26195.72458296 -.00000061  00000+0  00000+0 0  9997
2 40001  65.2150 312.7457 0008223 190.0502 169.9443  2.13105832 94045

# R22 (GNSS)
1 52984U 22075A   26195.32601985 -.00000064  00000+0  00000+0 0  9990
2 52984  64.2811 313.5296 0010789 271.5937  88.2918  2.13102227 31291

# R23 (GNSS)
1 36402U 10007C   26195.40307670 -.00000062  00000+0  00000+0 0  9990
2 36402  65.4033 313.5463 0001833 143.6465 240.9882  2.13101627127317

# R24 (GNSS)
1 45358U 20018A   26195.44141854 -.00000061  00000+0  00000+0 0  9996
2 45358  64.3375 311.4616 0009519 229.8963 130.0324  2.13102424 49241

# R25 (GNSS)
1 32275U 07052A   26195.60182829 -.00000063  00000+0  00000+0 0  9990
2 32275  65.5599 315.0115 0003477 203.3986 156.5929  2.13104150145642
